start=new Date('2021-10-17T00:00:00.000Z').valueOf();
sats=[{"ARG_OF_PERICENTER":"75.8111","MEAN_ELEMENT_THEORY":"SGP4","APOAPSIS":"548.192","MEAN_MOTION":"15.06388582","TLE_LINE1":"1 44954U 20001AS  21289.37517990  .00001495  00000-0  11928-3 0  9995","COUNTRY_CODE":"US","MEAN_MOTION_DOT":"0.00001495","PERIAPSIS":"546.305","CLASSIFICATION_TYPE":"U","ELEMENT_SET_NO":"999","GP_ID":"187356183","TLE_LINE2":"2 44954  53.0536 313.1640 0001363  75.8111 284.3029 15.06388582 98397","EPOCH":"2021-10-16T09:00:15.543360","ECCENTRICITY":"0.00013630","LAUNCH_DATE":"2020-01-07","MEAN_ANOMALY":"284.3029","OBJECT_TYPE":"PAYLOAD","REF_FRAME":"TEME","RCS_SIZE":"LARGE","EPHEMERIS_TYPE":"0","TIME_SYSTEM":"UTC","FILE":"3166610","SEMIMAJOR_AXIS":"6925.384","NORAD_CAT_ID":"44954","REV_AT_EPOCH":"9839","MEAN_MOTION_DDOT":"0.0000000000000","OBJECT_ID":"2020-001AS","SITE":"AFETR","CENTER_NAME":"EARTH","BSTAR":"0.00011928000000","DECAY_DATE":null,"INCLINATION":"53.0536","RA_OF_ASC_NODE":"313.1640","OBJECT_NAME":"STARLINK-1066","PERIOD":"95.593"},{"ECCENTRICITY":"0.00012840","EPOCH":"2021-10-16T07:35:20.880096","GP_ID":"187354931","TLE_LINE2":"2 44955  53.0551 313.4315 0001284  77.5845 282.5288 15.06388060 98389","ELEMENT_SET_NO":"999","CLASSIFICATION_TYPE":"U","REF_FRAME":"TEME","OBJECT_TYPE":"PAYLOAD","MEAN_ANOMALY":"282.5288","LAUNCH_DATE":"2020-01-07","COUNTRY_CODE":"US","TLE_LINE1":"1 44955U 20001AT  21289.31621389  .00001703  00000-0  13321-3 0  9999","MEAN_MOTION":"15.06388060","APOAPSIS":"548.139","MEAN_ELEMENT_THEORY":"SGP4","ARG_OF_PERICENTER":"77.5845","PERIAPSIS":"546.361","MEAN_MOTION_DOT":"0.00001703","BSTAR":"0.00013321000000","SITE":"AFETR","CENTER_NAME":"EARTH","OBJECT_ID":"2020-001AT","OBJECT_NAME":"STARLINK-1069","PERIOD":"95.593","RA_OF_ASC_NODE":"313.4315","INCLINATION":"53.0551","DECAY_DATE":null,"TIME_SYSTEM":"UTC","RCS_SIZE":"LARGE","EPHEMERIS_TYPE":"0","MEAN_MOTION_DDOT":"0.0000000000000","REV_AT_EPOCH":"9838","NORAD_CAT_ID":"44955","SEMIMAJOR_AXIS":"6925.385","FILE":"3166610"},{"MEAN_MOTION":"15.06391945","TLE_LINE1":"1 44956U 20001AU  21289.57792572 -.00001063  00000-0 -52477-4 0  9998","COUNTRY_CODE":"US","ARG_OF_PERICENTER":"86.5833","MEAN_ELEMENT_THEORY":"SGP4","APOAPSIS":"548.212","PERIAPSIS":"546.265","MEAN_MOTION_DOT":"-0.00001063","EPOCH":"2021-10-16T13:52:12.782208","TLE_LINE2":"2 44956  53.0545 312.2556 0001406  86.5833 273.5317 15.06391945 98480","GP_ID":"187332657","ECCENTRICITY":"0.00014060","ELEMENT_SET_NO":"999","CLASSIFICATION_TYPE":"U","REF_FRAME":"TEME","MEAN_ANOMALY":"273.5317","OBJECT_TYPE":"PAYLOAD","LAUNCH_DATE":"2020-01-07","TIME_SYSTEM":"UTC","EPHEMERIS_TYPE":"0","RCS_SIZE":"LARGE","REV_AT_EPOCH":"9848","NORAD_CAT_ID":"44956","MEAN_MOTION_DDOT":"0.0000000000000","FILE":"3166465","SEMIMAJOR_AXIS":"6925.373","BSTAR":"-0.00005247700000","OBJECT_ID":"2020-001AU","CENTER_NAME":"EARTH","SITE":"AFETR","RA_OF_ASC_NODE":"312.2556","INCLINATION":"53.0545","OBJECT_NAME":"STARLINK-1070","PERIOD":"95.593","DECAY_DATE":null},{"DECAY_DATE":null,"RA_OF_ASC_NODE":"313.3305","INCLINATION":"53.0549","PERIOD":"95.593","OBJECT_NAME":"STARLINK-1074","OBJECT_ID":"2020-001AV","SITE":"AFETR","CENTER_NAME":"EARTH","BSTAR":"0.00009572900000","FILE":"3166610","SEMIMAJOR_AXIS":"6925.369","REV_AT_EPOCH":"9844","NORAD_CAT_ID":"44957","MEAN_MOTION_DDOT":"0.0000000000000","EPHEMERIS_TYPE":"0","RCS_SIZE":"LARGE","TIME_SYSTEM":"UTC","LAUNCH_DATE":"2020-01-07","REF_FRAME":"TEME","OBJECT_TYPE":"PAYLOAD","MEAN_ANOMALY":"282.6724","CLASSIFICATION_TYPE":"U","ELEMENT_SET_NO":"999","EPOCH":"2021-10-16T08:07:10.737408","TLE_LINE2":"2 44957  53.0549 313.3305 0001356  77.4416 282.6724 15.06393388 98441","GP_ID":"187355933","ECCENTRICITY":"0.00013560","MEAN_MOTION_DOT":"0.00001144","PERIAPSIS":"546.295","MEAN_ELEMENT_THEORY":"SGP4","ARG_OF_PERICENTER":"77.4416","APOAPSIS":"548.173","MEAN_MOTION":"15.06393388","TLE_LINE1":"1 44957U 20001AV  21289.33831872  .00001144  00000-0  95729-4 0  9995","COUNTRY_CODE":"US"},{"MEAN_MOTION_DOT":"0.00001396","PERIAPSIS":"546.336","MEAN_ELEMENT_THEORY":"SGP4","ARG_OF_PERICENTER":"73.8243","APOAPSIS":"548.113","MEAN_MOTION":"15.06396478","TLE_LINE1":"1 44959U 20001AX  21289.35305695  .00001396  00000-0  11262-3 0  9996","COUNTRY_CODE":"US","LAUNCH_DATE":"2020-01-07","REF_FRAME":"TEME","MEAN_ANOMALY":"286.2887","OBJECT_TYPE":"PAYLOAD","CLASSIFICATION_TYPE":"U","ELEMENT_SET_NO":"999","EPOCH":"2021-10-16T08:28:24.120480","GP_ID":"187355684","TLE_LINE2":"2 44959  53.0555 313.2642 0001283  73.8243 286.2887 15.06396478 98443","ECCENTRICITY":"0.00012830","FILE":"3166610","SEMIMAJOR_AXIS":"6925.359","REV_AT_EPOCH":"9844","NORAD_CAT_ID":"44959","MEAN_MOTION_DDOT":"0.0000000000000","EPHEMERIS_TYPE":"0","RCS_SIZE":"LARGE","TIME_SYSTEM":"UTC","DECAY_DATE":null,"RA_OF_ASC_NODE":"313.2642","INCLINATION":"53.0555","PERIOD":"95.592","OBJECT_NAME":"STARLINK-1076","OBJECT_ID":"2020-001AX","CENTER_NAME":"EARTH","SITE":"AFETR","BSTAR":"0.00011262000000"},{"MEAN_MOTION_DOT":"-0.00000808","PERIAPSIS":"546.274","MEAN_ELEMENT_THEORY":"SGP4","ARG_OF_PERICENTER":"68.0081","APOAPSIS":"548.293","MEAN_MOTION":"15.06377200","TLE_LINE1":"1 44961U 20001AZ  21289.36045885 -.00000808  00000-0 -35378-4 0  9996","COUNTRY_CODE":"US","LAUNCH_DATE":"2020-01-07","REF_FRAME":"TEME","MEAN_ANOMALY":"292.1063","OBJECT_TYPE":"PAYLOAD","ELEMENT_SET_NO":"999","CLASSIFICATION_TYPE":"U","EPOCH":"2021-10-16T08:39:03.644640","TLE_LINE2":"2 44961  53.0551 313.2255 0001458  68.0081 292.1063 15.06377200 98457","GP_ID":"187354433","ECCENTRICITY":"0.00014580","FILE":"3166610","SEMIMAJOR_AXIS":"6925.418","REV_AT_EPOCH":"9845","NORAD_CAT_ID":"44961","MEAN_MOTION_DDOT":"0.0000000000000","RCS_SIZE":"LARGE","EPHEMERIS_TYPE":"0","TIME_SYSTEM":"UTC","DECAY_DATE":null,"RA_OF_ASC_NODE":"313.2255","INCLINATION":"53.0551","OBJECT_NAME":"STARLINK-1080","PERIOD":"95.594","OBJECT_ID":"2020-001AZ","SITE":"AFETR","CENTER_NAME":"EARTH","BSTAR":"-0.00003537800000"},{"LAUNCH_DATE":"2020-01-07","REF_FRAME":"TEME","MEAN_ANOMALY":"296.5595","OBJECT_TYPE":"PAYLOAD","ELEMENT_SET_NO":"999","CLASSIFICATION_TYPE":"U","EPOCH":"2021-10-16T08:17:15.354240","TLE_LINE2":"2 44963  52.9999 309.8435 0001765  63.5575 296.5595 15.08166584 99219","GP_ID":"187355182","ECCENTRICITY":"0.00017650","MEAN_MOTION_DOT":"0.00005389","PERIAPSIS":"540.583","MEAN_ELEMENT_THEORY":"SGP4","ARG_OF_PERICENTER":"63.5575","APOAPSIS":"543.026","MEAN_MOTION":"15.08166584","TLE_LINE1":"1 44963U 20001BB  21289.34531660  .00005389  00000-0  36293-3 0  9990","COUNTRY_CODE":"US","DECAY_DATE":null,"RA_OF_ASC_NODE":"309.8435","INCLINATION":"52.9999","OBJECT_NAME":"STARLINK-1085","PERIOD":"95.480","OBJECT_ID":"2020-001BB","SITE":"AFETR","CENTER_NAME":"EARTH","BSTAR":"0.00036293000000","FILE":"3166610","SEMIMAJOR_AXIS":"6919.940","REV_AT_EPOCH":"9921","NORAD_CAT_ID":"44963","MEAN_MOTION_DDOT":"0.0000000000000","EPHEMERIS_TYPE":"0","RCS_SIZE":"LARGE","TIME_SYSTEM":"UTC"},{"ELEMENT_SET_NO":"999","CLASSIFICATION_TYPE":"U","ECCENTRICITY":"0.00014290","GP_ID":"187355434","TLE_LINE2":"2 44964  53.0536 313.3986 0001429  77.5954 282.5194 15.06388037 98444","EPOCH":"2021-10-16T07:45:57.403584","LAUNCH_DATE":"2020-01-07","OBJECT_TYPE":"PAYLOAD","MEAN_ANOMALY":"282.5194","REF_FRAME":"TEME","APOAPSIS":"548.240","ARG_OF_PERICENTER":"77.5954","MEAN_ELEMENT_THEORY":"SGP4","TLE_LINE1":"1 44964U 20001BC  21289.32358106  .00001597  00000-0  12614-3 0  9999","COUNTRY_CODE":"US","MEAN_MOTION":"15.06388037","MEAN_MOTION_DOT":"0.00001597","PERIAPSIS":"546.261","SITE":"AFETR","CENTER_NAME":"EARTH","OBJECT_ID":"2020-001BC","BSTAR":"0.00012614000000","DECAY_DATE":null,"OBJECT_NAME":"STARLINK-1086","PERIOD":"95.593","INCLINATION":"53.0536","RA_OF_ASC_NODE":"313.3986","RCS_SIZE":"LARGE","EPHEMERIS_TYPE":"0","TIME_SYSTEM":"UTC","SEMIMAJOR_AXIS":"6925.385","FILE":"3166610","MEAN_MOTION_DDOT":"0.0000000000000","NORAD_CAT_ID":"44964","REV_AT_EPOCH":"9844"},{"EPOCH":"2021-10-16T08:17:47.422464","GP_ID":"187356184","TLE_LINE2":"2 44966  53.0548 313.2905 0001241  87.1567 272.9564 15.06398904 98446","ECCENTRICITY":"0.00012410","ELEMENT_SET_NO":"999","CLASSIFICATION_TYPE":"U","REF_FRAME":"TEME","MEAN_ANOMALY":"272.9564","OBJECT_TYPE":"PAYLOAD","LAUNCH_DATE":"2020-01-07","MEAN_MOTION":"15.06398904","TLE_LINE1":"1 44966U 20001BE  21289.34568776  .00002436  00000-0  18238-3 0  9990","COUNTRY_CODE":"US","ARG_OF_PERICENTER":"87.1567","MEAN_ELEMENT_THEORY":"SGP4","APOAPSIS":"548.076","PERIAPSIS":"546.357","MEAN_MOTION_DOT":"0.00002436","BSTAR":"0.00018238000000","OBJECT_ID":"2020-001BE","SITE":"AFETR","CENTER_NAME":"EARTH","RA_OF_ASC_NODE":"313.2905","INCLINATION":"53.0548","PERIOD":"95.592","OBJECT_NAME":"STARLINK-1088","DECAY_DATE":null,"TIME_SYSTEM":"UTC","EPHEMERIS_TYPE":"0","RCS_SIZE":"LARGE","REV_AT_EPOCH":"9844","NORAD_CAT_ID":"44966","MEAN_MOTION_DDOT":"0.0000000000000","FILE":"3166610","SEMIMAJOR_AXIS":"6925.352"},{"INCLINATION":"53.0550","RA_OF_ASC_NODE":"312.3020","OBJECT_NAME":"STARLINK-1089","PERIOD":"95.593","DECAY_DATE":null,"BSTAR":"0.00014680000000","OBJECT_ID":"2020-001BF","CENTER_NAME":"EARTH","SITE":"AFETR","NORAD_CAT_ID":"44967","REV_AT_EPOCH":"9848","MEAN_MOTION_DDOT":"0.0000000000000","FILE":"3166473","SEMIMAJOR_AXIS":"6925.369","TIME_SYSTEM":"UTC","RCS_SIZE":"LARGE","EPHEMERIS_TYPE":"0","MEAN_ANOMALY":"276.6982","OBJECT_TYPE":"PAYLOAD","REF_FRAME":"TEME","LAUNCH_DATE":"2020-01-07","GP_ID":"187333290","TLE_LINE2":"2 44967  53.0550 312.3020 0001410  83.4168 276.6982 15.06393389 98483","EPOCH":"2021-10-16T13:36:16.628832","ECCENTRICITY":"0.00014100","ELEMENT_SET_NO":"999","CLASSIFICATION_TYPE":"U","PERIAPSIS":"546.257","MEAN_MOTION_DOT":"0.00001905","MEAN_MOTION":"15.06393389","COUNTRY_CODE":"US","TLE_LINE1":"1 44967U 20001BF  21289.56685913  .00001905  00000-0  14680-3 0  9995","MEAN_ELEMENT_THEORY":"SGP4","ARG_OF_PERICENTER":"83.4168","APOAPSIS":"548.210"}];
